#dP2022  7 19  0  0  0.00000000      97 __u+U IGS14 FIT  IAC
## 2219 172800.00000000   900.00000000 59779 0.0000000000000
+  116   C06C07C08C09C10C11C12C13C14C16C19C20C21C22C23C24C25
+        C26C27C28C29C30C32C33C34C35C36C37C38C39C40C41C42C43
+        C44C45C46E01E02E03E04E05E07E08E09E10E11E12E13E14E15
+        E18E19E21E24E25E26E27E30E31E33E34E36G01G02G03G04G05
+        G06G07G08G09G10G11G12G13G14G15G16G17G18G19G20G21G22
+        G23G24G25G26G27G28G29G30G31G32J02J03R01R02R03R04R05
+        R07R08R09R11R12R13R14R15R17R18R19R20R21R24  0  0  0
++         7  7  7  7  7  6  6  7  7  7  5  5  5  6  6  6  5
++         5  5  5  6  6  6  6  5  6  6  6  6  6  6  6  6  6
++         6  6  6  4  4  5  4  4  4  4  4  4  4  4  4  4  4
++         4  4  4  4  4  4  4  5  4  4  4  4  3  4  3  3  4
++         3  3  4  3  3  3  3  4  3  3  4  3  3  4  4  3  3
++         3  3  3  3  3  4  4  3  3  3  9  9  6  6  6  6  6
++         6  6  6  6  6  7  6  6  6  6  7  7  6  6  0  0  0
%c M  cc GPS ccc cccc cccc cccc cccc ccccc ccccc ccccc ccccc
%c cc cc ccc ccc cccc cccc cccc cccc ccccc ccccc ccccc ccccc
%f  1.2500000  1.025000000  0.00000000000  0.000000000000000
%f  0.0000000  0.000000000  0.00000000000  0.000000000000000
%i    0    0    0    0      0      0      0      0         0
%i    0    0    0    0      0      0      0      0         0
/* INFORMATION & ANALYSIS CENTER (IAC)            FINAL DATA
/* S/V CLOCKS ARE ALIGNED TO GNSS TIME                      
/* G:C1WC2W R:C1PC2P E:C1XC5X C:C2IC6I J:C1CC2S             
/* PCV:IGS14_2215 OL/AL:FES2004  NONE     YN ORB:CoN CLK:CoN
*  2022 07 19  7  0  0.00000000
PC06 -17952.535888  34915.234323 -15654.281837    425.101406
PC07  -2575.673235  36943.299589 -19955.184604   -448.786424
PC08  -6242.210276  19980.245862  36574.675797    409.792958
PC09 -12847.999841  33735.674194 -21818.772745   -923.181041
PC10   3020.029714  38903.550534 -15009.952159    117.146887
PC11   5252.007509 -22274.807616 -15935.711663    483.272995
PC12  18075.743110 -21272.846607    387.704462   -573.547675
PC13   -629.129437  22508.828195  35779.716960     28.163273
PC14  -5451.733200 -26569.601168  -6679.791921    548.012795
PC16 -20085.902974  34689.967959 -13282.002035    143.256217
PC19  11790.370136  25135.565796  -2666.612343   -241.296673
PC20   -528.736535  24331.201640  13636.172275   -963.939956
PC21  13372.968408  -8829.878655 -22833.858155    -12.018853
PC22  17817.471722  11408.564749 -18182.683840   -962.910808
PC23 -26629.976083  -7250.398804   4145.543676   -947.616880
PC24   8391.445500 -14796.877997  22123.823791   -967.697280
PC25 -14484.547462 -15222.590933  18351.614205   -705.490859
PC26  23589.462055  -6555.086095  13413.953154    707.479821
PC27 -21123.292286  15999.864857  -8789.578108    756.479430
PC28 -18383.559377   -571.405836 -20986.593690     91.680344
PC29   5069.421117  17524.446452  21105.957103    583.656632
PC30 -11438.095271  24161.618614   8028.784677    501.236403
PC32 -13381.564554   8826.631764  22854.108419   -972.248631
PC33 -11918.859662 -25110.625070   2606.629317   -200.627093
PC34  10618.045308 -24172.694047  -9026.179356   -355.584503
PC35  17871.672028   1200.421455  21378.831606    372.550590
PC36  13603.518132  15668.288308 -18629.679330   -972.491618
PC37 -24401.148871   5224.936194 -12451.268802   -918.745699
PC38 -15105.331045  19922.930073  33920.175004     11.135516
PC39 -22354.290535  35122.714569  -7239.623834     -0.090590
PC40  -6470.723709  33866.573233 -24122.359349     -0.819994
PC41 -17896.882719 -11846.901203  17887.440960    -92.628143
PC42   1276.094013 -23857.350126 -14398.054495   -953.106468
PC43  -4486.775475 -18098.174481 -20769.391999      3.751999
PC44  20589.780333 -16574.203722   8892.247679    728.759871
PC45  26751.660250   7001.173731  -3816.672954    812.719614
PC46  -6486.578353  15176.626711 -22489.219101   -439.769732
PE01   4605.631500 -17079.300868  23739.022160   -517.976531
PE02  -4415.333930  17188.599623 -23688.345333    312.874634
PE03  -8299.927939  27834.809438   5663.319210   -580.505586
PE04  -4765.175562 -26467.793846  12379.325646  -1074.595697
PE05 -16753.995025  12854.318163  20745.917097   -161.612063
PE07  15330.882731   9346.872858 -23522.695591   -688.830041
PE08   4884.616105  26343.065741 -12565.711239   -566.172353
PE09 -15220.127696  -9311.172477  23626.227081   -592.699829
PE10 -15922.622653  -9643.090460 -23027.282739   -501.536850
PE11 -24045.944102  -2466.001723 -17109.315183   2957.467835
PE12  -5826.550169 -15040.772313 -24829.678754    -69.763919
PE13  23581.870505   2885.497310  17650.115431    429.876569
PE14  12496.937393 -25968.457362   4604.259011  -1774.830703
PE15   5633.520662  15027.811133  24868.448727    732.349726
PE18 -18081.756468  15363.161532 -14548.709620  -1196.980156
PE19   9792.979553 -26761.459121  -7998.216183  -5052.265354
PE21  20040.778380  -2763.141418  21611.317668   -746.756206
PE24 -24836.730595 -14953.855336  -5938.665953   -732.925030
PE25 -20215.839564   2495.131219 -21466.604162   -581.566751
PE26  27343.142142 -11319.269861   -786.720241  -1393.981734
PE27  25075.249568  14102.193326   6983.619413   -348.184674
PE30  14456.924077  22676.824552 -12379.831978   -684.131989
PE31 -15293.037413 -22520.126436  11640.043964   -500.168056
PE33  15532.118886 -18240.759062 -17386.381818   -454.575082
PE34 -15326.918059  18281.569490  17501.236386   -486.582263
PE36 -27545.882069  10839.530580   -147.987816   -404.271318
PG01  -2514.069906 -14574.450503 -22357.738240    318.577791
PG02 -17772.187831  15751.339717  12719.214870   -651.134864
PG03  -9663.274189 -21487.052126 -12491.909953   -310.964319
PG04    204.055126 -24626.740470   9833.854537   -144.139154
PG05  -3092.703746  16440.559794  20424.333984    -89.675914
PG06 -25873.820685   6032.994974  -1313.892757    390.961968
PG07 -18656.677105  -8113.113688  17741.225706    318.730637
PG08   4790.397058 -25859.892575  -1916.129288    -76.813460
PG09  -8677.664135 -17656.025798  17759.902571   -317.549461
PG10  21447.199031   8430.871039 -13318.358624   -497.108351
PG11 -20757.880977  12338.276154  11023.696319    -10.523302
PG12   5776.965148  21715.924504 -14509.546713   -248.696540
PG13 -13249.962755  22201.608396   5492.054406    351.269066
PG14 -21375.528900 -10010.608120 -12276.638213   -111.631864
PG15  -1615.304365  26273.794292  -2292.727193    -44.262140
PG16   9726.551036 -11477.953432  21584.148387   -516.155040
PG17 -14865.064416  -1228.790757 -21548.440112    638.548882
PG18  18471.042690   7669.138639  17529.122154    108.879836
PG19 -16817.292914   7960.899124 -19114.132383    185.656193
PG20 -13967.257419   8581.634681  20861.563910    502.003178
PG21   7432.019085 -16510.472405 -18551.158219    161.043351
PG22  16520.704742 -11301.540265 -16951.216956    294.848953
PG23  20985.759525  15895.511703  -3972.476645    -33.554411
PG24  -1126.966204  16771.904118 -20792.456523    193.081140
PG25  17058.218992  20264.579793  -3695.102322    350.865130
PG26  17465.080308  -3848.388243  19642.148620    219.035618
PG27  12511.756216 -20813.969154  10061.170770    220.861714
PG28 -18463.493651  -2355.925344 -18347.128879    335.608930
PG29   6816.733659  17902.069457  18313.399864   -534.914864
PG30 -24924.276541   -887.433469   9587.445883   -534.302273
PG31  25817.410547  -7160.931847   1008.841172   -186.323571
PG32  15781.725853  -1983.348374 -21092.656296   -180.164346
PJ02 -24562.588277  16426.524860 -25509.387739     -1.877743
PJ03 -27032.224455  32287.429037   6156.089097     -0.181773
PR01   9780.634808  -6323.646051 -22693.960768     11.722840
PR02   1572.936952 -22510.798078 -11789.774167    524.565478
PR03  -7123.911065 -23852.974570   5477.925460     60.460970
PR04 -11410.739428 -11997.817381  19428.495846    151.147084
PR05  -9610.789187   6472.339994  22738.136447     96.468662
PR07   7348.868230  23675.370866  -6075.472857     38.068504
PR08  11533.795163  11875.259617 -19359.515445    -66.277168
PR09  -4422.600962  10439.548883 -22829.707486     66.558568
PR11  23780.415641   8960.030608  -2086.459080     32.880479
PR12  20192.162215   -949.866125  15596.943936     19.370168
PR13   5773.215333  -9653.938207  22884.885164    -24.766840
PR14 -13734.740445 -13321.248575  16898.580017     24.835110
PR15 -23888.722280  -8878.694589   1198.689402     94.612180
PR17   -541.680015 -12723.745324 -22108.538118    544.779811
PR18 -14294.149631   -402.692993 -21127.492056     33.447492
PR19 -20791.677325  10702.475206 -10186.545779   -196.845435
PR20 -15237.992524  17773.099086  10172.720922    -74.888543
PR21   1878.969223  11697.485968  22577.938527   -318.582112
PR24  14175.821868 -18324.109111 -10687.235560    104.319453
EOF
